STARLINK-37122          
1 68678U 26077S   26119.27061576  .00082152  00000+0  54591-3 0  9994
2 68678  97.2843 350.6710 0001402  83.0438 277.0987 15.75209318  2873
STARLINK-37310          
1 68679U 26077T   26119.26990889  .00117308  00000+0  77550-3 0  9994
2 68679  97.2846 350.6727 0001294  87.2540 272.8874 15.75222735  2870
STARLINK-37306          
1 68680U 26077U   26119.26779157  .00122925  00000+0  81182-3 0  9996
2 68680  97.2847 350.6749 0001409  88.9654 271.1773 15.75229288  2879
STARLINK-37307          
1 68681U 26077V   26119.26814461  .00107792  00000+0  71353-3 0  9999
2 68681  97.2845 350.6743 0001469 102.8691 257.2738 15.75220352  2874
STARLINK-37300          
1 68682U 26077W   26119.26391043  .00111794  00000+0  73961-3 0  9990
2 68682  97.2846 350.6804 0001456  77.0656 283.0771 15.75221238  2872
STARLINK-37304          
1 68683U 26077X   26119.26426658  .00015167  00000+0  10245-3 0  9995
2 68683  97.2847 350.6797 0001599  55.8808 304.2609 15.75172176  2878
STARLINK-37287          
1 68684U 26077Y   26119.26532120  .00106902  00000+0  70772-3 0  9997
2 68684  97.2847 350.6781 0001412  91.6155 268.5272 15.75220271  2877
STARLINK-36278          
1 68685U 26077Z   26119.26320531  .00132457  00000+0  87396-3 0  9993
2 68685  97.2846 350.6812 0001486  77.9906 282.1526 15.75222989  2876
STARLINK-37213          
1 68686U 26077AA  26119.26649496 -.00503373  00000+0 -36876-2 0  9995
2 68686  97.2844 350.6760 0002251 104.1223 256.0293 15.74479230  2876
GUOWANG TEST OBJECT A   
1 68687U 26078A   26118.78048347  .00000335  00000+0  38743-3 0  9995
2 68687  86.4994 299.6220 0002351 156.8112 203.3153 13.66139600  2354
CYGNUS NG-24            
1 68689U 26079A   26119.16770407  .00006851  00000+0  13230-3 0  9993
2 68689  51.6320 182.7324 0007095   3.0267 357.0763 15.49015163  2808
JILIN GAOFEN OBJECT A   
1 68691U 26080A   26118.27547138  .00000931  00000+0  63919-4 0  9995
2 68691  97.6638 193.8907 0011393 230.3161 129.7063 15.08414884  2138
JILIN GAOFEN OBJECT B   
1 68692U 26080B   26119.32820286  .00003800  00000+0  24137-3 0  9997
2 68692  97.6610 194.9568 0014526 223.4007 136.6079 15.09391108  2292
JILIN GAOFEN OBJECT C   
1 68693U 26080C   26117.14575679  .00000944  00000+0  64643-4 0  9992
2 68693  97.6630 192.7660 0013164 216.5655 143.4676 15.08464103  1960
