[{"OBJECT_NAME":"STARLINK-37122","OBJECT_ID":"2026-077S","EPOCH":"2026-04-29T06:29:41.201664","MEAN_MOTION":15.75209318,"ECCENTRICITY":0.00014025,"INCLINATION":97.2843,"RA_OF_ASC_NODE":350.671,"ARG_OF_PERICENTER":83.0438,"MEAN_ANOMALY":277.0987,"EPHEMERIS_TYPE":0,"CLASSIFICATION_TYPE":"U","NORAD_CAT_ID":68678,"ELEMENT_SET_NO":999,"REV_AT_EPOCH":287,"BSTAR":0.00054590737,"MEAN_MOTION_DOT":0.00082152,"MEAN_MOTION_DDOT":0},{"OBJECT_NAME":"STARLINK-37310","OBJECT_ID":"2026-077T","EPOCH":"2026-04-29T06:28:40.128096","MEAN_MOTION":15.75222735,"ECCENTRICITY":0.00012942,"INCLINATION":97.2846,"RA_OF_ASC_NODE":350.6727,"ARG_OF_PERICENTER":87.254,"MEAN_ANOMALY":272.8874,"EPHEMERIS_TYPE":0,"CLASSIFICATION_TYPE":"U","NORAD_CAT_ID":68679,"ELEMENT_SET_NO":999,"REV_AT_EPOCH":287,"BSTAR":0.0007755018,"MEAN_MOTION_DOT":0.00117308,"MEAN_MOTION_DDOT":0},{"OBJECT_NAME":"STARLINK-37306","OBJECT_ID":"2026-077U","EPOCH":"2026-04-29T06:25:37.191648","MEAN_MOTION":15.75229288,"ECCENTRICITY":0.00014092,"INCLINATION":97.2847,"RA_OF_ASC_NODE":350.6749,"ARG_OF_PERICENTER":88.9654,"MEAN_ANOMALY":271.1773,"EPHEMERIS_TYPE":0,"CLASSIFICATION_TYPE":"U","NORAD_CAT_ID":68680,"ELEMENT_SET_NO":999,"REV_AT_EPOCH":287,"BSTAR":0.00081182083,"MEAN_MOTION_DOT":0.00122925,"MEAN_MOTION_DDOT":0},{"OBJECT_NAME":"STARLINK-37307","OBJECT_ID":"2026-077V","EPOCH":"2026-04-29T06:26:07.694304","MEAN_MOTION":15.75220352,"ECCENTRICITY":0.00014692,"INCLINATION":97.2845,"RA_OF_ASC_NODE":350.6743,"ARG_OF_PERICENTER":102.8691,"MEAN_ANOMALY":257.2738,"EPHEMERIS_TYPE":0,"CLASSIFICATION_TYPE":"U","NORAD_CAT_ID":68681,"ELEMENT_SET_NO":999,"REV_AT_EPOCH":287,"BSTAR":0.00071352856,"MEAN_MOTION_DOT":0.00107792,"MEAN_MOTION_DDOT":0},{"OBJECT_NAME":"STARLINK-37300","OBJECT_ID":"2026-077W","EPOCH":"2026-04-29T06:20:01.861152","MEAN_MOTION":15.75221238,"ECCENTRICITY":0.0001456,"INCLINATION":97.2846,"RA_OF_ASC_NODE":350.6804,"ARG_OF_PERICENTER":77.0656,"MEAN_ANOMALY":283.0771,"EPHEMERIS_TYPE":0,"CLASSIFICATION_TYPE":"U","NORAD_CAT_ID":68682,"ELEMENT_SET_NO":999,"REV_AT_EPOCH":287,"BSTAR":0.0007396115,"MEAN_MOTION_DOT":0.00111794,"MEAN_MOTION_DDOT":0},{"OBJECT_NAME":"STARLINK-37304","OBJECT_ID":"2026-077X","EPOCH":"2026-04-29T06:20:32.632512","MEAN_MOTION":15.75172176,"ECCENTRICITY":0.00015996,"INCLINATION":97.2847,"RA_OF_ASC_NODE":350.6797,"ARG_OF_PERICENTER":55.8808,"MEAN_ANOMALY":304.2609,"EPHEMERIS_TYPE":0,"CLASSIFICATION_TYPE":"U","NORAD_CAT_ID":68683,"ELEMENT_SET_NO":999,"REV_AT_EPOCH":287,"BSTAR":0.00010245286,"MEAN_MOTION_DOT":0.00015167,"MEAN_MOTION_DDOT":0},{"OBJECT_NAME":"STARLINK-37287","OBJECT_ID":"2026-077Y","EPOCH":"2026-04-29T06:22:03.751680","MEAN_MOTION":15.75220271,"ECCENTRICITY":0.00014122,"INCLINATION":97.2847,"RA_OF_ASC_NODE":350.6781,"ARG_OF_PERICENTER":91.6155,"MEAN_ANOMALY":268.5272,"EPHEMERIS_TYPE":0,"CLASSIFICATION_TYPE":"U","NORAD_CAT_ID":68684,"ELEMENT_SET_NO":999,"REV_AT_EPOCH":287,"BSTAR":0.00070771781,"MEAN_MOTION_DOT":0.00106902,"MEAN_MOTION_DDOT":0},{"OBJECT_NAME":"STARLINK-36278","OBJECT_ID":"2026-077Z","EPOCH":"2026-04-29T06:19:00.938784","MEAN_MOTION":15.75222989,"ECCENTRICITY":0.00014862,"INCLINATION":97.2846,"RA_OF_ASC_NODE":350.6812,"ARG_OF_PERICENTER":77.9906,"MEAN_ANOMALY":282.1526,"EPHEMERIS_TYPE":0,"CLASSIFICATION_TYPE":"U","NORAD_CAT_ID":68685,"ELEMENT_SET_NO":999,"REV_AT_EPOCH":287,"BSTAR":0.00087396334,"MEAN_MOTION_DOT":0.00132457,"MEAN_MOTION_DDOT":0},{"OBJECT_NAME":"STARLINK-37213","OBJECT_ID":"2026-077AA","EPOCH":"2026-04-29T06:23:45.164544","MEAN_MOTION":15.7447923,"ECCENTRICITY":0.00022513,"INCLINATION":97.2844,"RA_OF_ASC_NODE":350.676,"ARG_OF_PERICENTER":104.1223,"MEAN_ANOMALY":256.0293,"EPHEMERIS_TYPE":0,"CLASSIFICATION_TYPE":"U","NORAD_CAT_ID":68686,"ELEMENT_SET_NO":999,"REV_AT_EPOCH":287,"BSTAR":-0.0036875884,"MEAN_MOTION_DOT":-0.00503373,"MEAN_MOTION_DDOT":0},{"OBJECT_NAME":"GUOWANG TEST OBJECT A","OBJECT_ID":"2026-078A","EPOCH":"2026-04-28T18:43:53.771808","MEAN_MOTION":13.661396,"ECCENTRICITY":0.00023514,"INCLINATION":86.4994,"RA_OF_ASC_NODE":299.622,"ARG_OF_PERICENTER":156.8112,"MEAN_ANOMALY":203.3153,"EPHEMERIS_TYPE":0,"CLASSIFICATION_TYPE":"U","NORAD_CAT_ID":68687,"ELEMENT_SET_NO":999,"REV_AT_EPOCH":235,"BSTAR":0.00038742885,"MEAN_MOTION_DOT":3.35e-6,"MEAN_MOTION_DDOT":0},{"OBJECT_NAME":"CYGNUS NG-24","OBJECT_ID":"2026-079A","EPOCH":"2026-04-29T04:01:29.631648","MEAN_MOTION":15.49015163,"ECCENTRICITY":0.00070957,"INCLINATION":51.632,"RA_OF_ASC_NODE":182.7324,"ARG_OF_PERICENTER":3.0267,"MEAN_ANOMALY":357.0763,"EPHEMERIS_TYPE":0,"CLASSIFICATION_TYPE":"U","NORAD_CAT_ID":68689,"ELEMENT_SET_NO":999,"REV_AT_EPOCH":280,"BSTAR":0.00013229681,"MEAN_MOTION_DOT":6.851e-5,"MEAN_MOTION_DDOT":0},{"OBJECT_NAME":"JILIN GAOFEN OBJECT A","OBJECT_ID":"2026-080A","EPOCH":"2026-04-28T06:36:40.727232","MEAN_MOTION":15.08414884,"ECCENTRICITY":0.00113936,"INCLINATION":97.6638,"RA_OF_ASC_NODE":193.8907,"ARG_OF_PERICENTER":230.3161,"MEAN_ANOMALY":129.7063,"EPHEMERIS_TYPE":0,"CLASSIFICATION_TYPE":"U","NORAD_CAT_ID":68691,"ELEMENT_SET_NO":999,"REV_AT_EPOCH":213,"BSTAR":6.3919129e-5,"MEAN_MOTION_DOT":9.31e-6,"MEAN_MOTION_DDOT":0},{"OBJECT_NAME":"JILIN GAOFEN OBJECT B","OBJECT_ID":"2026-080B","EPOCH":"2026-04-29T07:52:36.727104","MEAN_MOTION":15.09391108,"ECCENTRICITY":0.0014526,"INCLINATION":97.661,"RA_OF_ASC_NODE":194.9568,"ARG_OF_PERICENTER":223.4007,"MEAN_ANOMALY":136.6079,"EPHEMERIS_TYPE":0,"CLASSIFICATION_TYPE":"U","NORAD_CAT_ID":68692,"ELEMENT_SET_NO":999,"REV_AT_EPOCH":229,"BSTAR":0.00024137,"MEAN_MOTION_DOT":3.8e-5,"MEAN_MOTION_DDOT":0},{"OBJECT_NAME":"JILIN GAOFEN OBJECT C","OBJECT_ID":"2026-080C","EPOCH":"2026-04-27T03:29:53.386656","MEAN_MOTION":15.08464103,"ECCENTRICITY":0.0013164,"INCLINATION":97.663,"RA_OF_ASC_NODE":192.766,"ARG_OF_PERICENTER":216.5655,"MEAN_ANOMALY":143.4676,"EPHEMERIS_TYPE":0,"CLASSIFICATION_TYPE":"U","NORAD_CAT_ID":68693,"ELEMENT_SET_NO":999,"REV_AT_EPOCH":196,"BSTAR":6.464321e-5,"MEAN_MOTION_DOT":9.44e-6,"MEAN_MOTION_DDOT":0}]
